{
    "links": {
        "self": "http://www.neowsapp.com/rest/v1/neo/3739168?api_key=iIulBulltgU6a56xZRHN4H3l9WmuAYTsLGpBGhQ2"
    },
    "id": "3739168",
    "neo_reference_id": "3739168",
    "name": "(2016 AN2)",
    "designation": "2016 AN2",
    "nasa_jpl_url": "http://ssd.jpl.nasa.gov/sbdb.cgi?sstr=3739168",
    "absolute_magnitude_h": 24.1,
    "estimated_diameter": {
        "kilometers": {
            "estimated_diameter_min": 0.040230458,
            "estimated_diameter_max": 0.0899580388
        },
        "meters": {
            "estimated_diameter_min": 40.2304579834,
            "estimated_diameter_max": 89.9580388169
        },
        "miles": {
            "estimated_diameter_min": 0.0249980399,
            "estimated_diameter_max": 0.0558973165
        },
        "feet": {
            "estimated_diameter_min": 131.9896957704,
            "estimated_diameter_max": 295.1379320721
        }
    },
    "is_potentially_hazardous_asteroid": false,
    "close_approach_data": [
        {
            "close_approach_date": "2015-12-08",
            "close_approach_date_full": "2015-Dec-08 09:55",
            "epoch_date_close_approach": 1449568500000,
            "relative_velocity": {
                "kilometers_per_second": "13.1290476003",
                "kilometers_per_hour": "47264.5713611135",
                "miles_per_hour": "29368.3665771319"
            },
            "miss_distance": {
                "astronomical": "0.094605548",
                "lunar": "36.801558172",
                "kilometers": "14152788.47098276",
                "miles": "8794134.966411688"
            },
            "orbiting_body": "Earth"
        },
        {
            "close_approach_date": "2166-12-15",
            "close_approach_date_full": "2166-Dec-15 02:18",
            "epoch_date_close_approach": 6215278680000,
            "relative_velocity": {
                "kilometers_per_second": "14.7967555618",
                "kilometers_per_hour": "53268.3200225808",
                "miles_per_hour": "33098.8625162531"
            },
            "miss_distance": {
                "astronomical": "0.0386581084",
                "lunar": "15.0380041676",
                "kilometers": "5783170.674869108",
                "miles": "3593495.6247573704"
            },
            "orbiting_body": "Earth"
        }
    ],
    "orbital_data": {
        "orbit_id": "5",
        "orbit_determination_date": "2017-04-06 08:29:29",
        "first_observation_date": "2016-01-02",
        "last_observation_date": "2016-01-13",
        "data_arc_in_days": 11,
        "observations_used": 23,
        "orbit_uncertainty": "9",
        "minimum_orbit_intersection": ".0254831",
        "jupiter_tisserand_invariant": "4.157",
        "epoch_osculation": "2457396.5",
        "eccentricity": ".5505836963499644",
        "semi_major_axis": "1.607964470528061",
        "inclination": "7.314453322172136",
        "ascending_node_longitude": "94.12741678934943",
        "orbital_period": "744.7544372725303",
        "perihelion_distance": ".7226454487453079",
        "perihelion_argument": "272.4282978226785",
        "aphelion_distance": "2.493283492310815",
        "perihelion_time": "2457318.704912966857",
        "mean_anomaly": "37.60465185611653",
        "mean_motion": ".4833808057839931",
        "equinox": "J2000",
        "orbit_class": {
            "orbit_class_type": "APO",
            "orbit_class_description": "Near-Earth asteroid orbits which cross the Earth’s orbit similar to that of 1862 Apollo",
            "orbit_class_range": "a (semi-major axis) > 1.0 AU; q (perihelion) < 1.017 AU"
        }
    },
    "is_sentry_object": false
}